[{"OBJECT_NAME":"STARLINK-30388","OBJECT_ID":"2023-134P","EPOCH":"2026-03-09T22:00:01.999584","MEAN_MOTION":15.27569806,"ECCENTRICITY":0.00014952,"INCLINATION":42.9995,"RA_OF_ASC_NODE":192.9965,"ARG_OF_PERICENTER":265.6995,"MEAN_ANOMALY":104.4744,"EPHEMERIS_TYPE":0,"CLASSIFICATION_TYPE":"U","NORAD_CAT_ID":57784,"ELEMENT_SET_NO":999,"REV_AT_EPOCH":578,"BSTAR":0.00067342336,"MEAN_MOTION_DOT":0.00018309,"MEAN_MOTION_DDOT":0},{"OBJECT_NAME":"YAOGAN-43 01D","OBJECT_ID":"2024-148D","EPOCH":"2026-03-09T10:27:16.254720","MEAN_MOTION":15.28369377,"ECCENTRICITY":0.00025569,"INCLINATION":35.001,"RA_OF_ASC_NODE":61.7102,"ARG_OF_PERICENTER":326.2473,"MEAN_ANOMALY":33.808,"EPHEMERIS_TYPE":0,"CLASSIFICATION_TYPE":"U","NORAD_CAT_ID":60461,"ELEMENT_SET_NO":999,"REV_AT_EPOCH":8700,"BSTAR":0.00037765912,"MEAN_MOTION_DOT":0.00010676,"MEAN_MOTION_DDOT":0}]
